start=new Date('2022-12-02T00:00:00.000Z').valueOf();
sats=[{"APOAPSIS":"548.187","RA_OF_ASC_NODE":"11.0693","LAUNCH_DATE":"2021-02-16","ECCENTRICITY":"0.00013900","CENTER_NAME":"EARTH","GP_ID":"219303215","MEAN_ANOMALY":"292.6947","MEAN_MOTION":"15.06396474","OBJECT_TYPE":"PAYLOAD","OBJECT_ID":"2021-012BH","COUNTRY_CODE":"US","MEAN_MOTION_DDOT":"0.0000000000000","ELEMENT_SET_NO":"999","TLE_LINE1":"1 47675U 21012BH  22335.82874940  .00000825  00000-0  74309-4 0  9994","RCS_SIZE":"LARGE","MEAN_ELEMENT_THEORY":"SGP4","SEMIMAJOR_AXIS":"6925.359","PERIOD":"95.592","FILE":"3678231","REV_AT_EPOCH":"10032","OBJECT_NAME":"STARLINK-2078","CLASSIFICATION_TYPE":"U","INCLINATION":"53.0564","NORAD_CAT_ID":"47675","EPOCH":"2022-12-01T19:53:23.948160","TLE_LINE2":"2 47675  53.0564  11.0693 0001390  67.4188 292.6947 15.06396474100321","ARG_OF_PERICENTER":"67.4188","PERIAPSIS":"546.262","SITE":"AFETR","TIME_SYSTEM":"UTC","REF_FRAME":"TEME","EPHEMERIS_TYPE":"0","DECAY_DATE":null,"MEAN_MOTION_DOT":"0.00000825","BSTAR":"0.00007430900000"},{"GP_ID":"219303463","ECCENTRICITY":"0.00016300","CENTER_NAME":"EARTH","LAUNCH_DATE":"2021-02-16","RA_OF_ASC_NODE":"261.0836","APOAPSIS":"548.356","OBJECT_ID":"2021-012BJ","OBJECT_TYPE":"PAYLOAD","MEAN_ANOMALY":"298.8847","MEAN_MOTION":"15.06395507","RCS_SIZE":"LARGE","TLE_LINE1":"1 47676U 21012BJ  22335.82413649  .00001231  00000-0  10156-3 0  9991","ELEMENT_SET_NO":"999","MEAN_MOTION_DDOT":"0.0000000000000","COUNTRY_CODE":"US","SEMIMAJOR_AXIS":"6925.362","MEAN_ELEMENT_THEORY":"SGP4","INCLINATION":"53.0556","CLASSIFICATION_TYPE":"U","FILE":"3678231","REV_AT_EPOCH":"10184","PERIOD":"95.592","OBJECT_NAME":"STARLINK-2083","SITE":"AFETR","PERIAPSIS":"546.098","ARG_OF_PERICENTER":"61.2306","TLE_LINE2":"2 47676  53.0556 261.0836 0001630  61.2306 298.8847 15.06395507101841","NORAD_CAT_ID":"47676","EPOCH":"2022-12-01T19:46:45.392736","MEAN_MOTION_DOT":"0.00001231","DECAY_DATE":null,"EPHEMERIS_TYPE":"0","REF_FRAME":"TEME","TIME_SYSTEM":"UTC","BSTAR":"0.00010156000000"},{"SEMIMAJOR_AXIS":"6925.392","MEAN_ELEMENT_THEORY":"SGP4","RCS_SIZE":"LARGE","TLE_LINE1":"1 47677U 21012BK  22335.68221951 -.00000771  00000-0 -32890-4 0  9999","COUNTRY_CODE":"US","MEAN_MOTION_DDOT":"0.0000000000000","ELEMENT_SET_NO":"999","OBJECT_TYPE":"PAYLOAD","OBJECT_ID":"2021-012BK","MEAN_ANOMALY":"298.6351","MEAN_MOTION":"15.06385980","GP_ID":"219272399","ECCENTRICITY":"0.00019880","CENTER_NAME":"EARTH","RA_OF_ASC_NODE":"31.7204","APOAPSIS":"548.633","LAUNCH_DATE":"2021-02-16","BSTAR":"-0.00003289000000","MEAN_MOTION_DOT":"-0.00000771","EPHEMERIS_TYPE":"0","DECAY_DATE":null,"TIME_SYSTEM":"UTC","REF_FRAME":"TEME","SITE":"AFETR","PERIAPSIS":"545.880","ARG_OF_PERICENTER":"61.4838","TLE_LINE2":"2 47677  53.0575  31.7204 0001988  61.4838 298.6351 15.06385980 99503","NORAD_CAT_ID":"47677","EPOCH":"2022-12-01T16:22:23.765664","INCLINATION":"53.0575","FILE":"3677613","OBJECT_NAME":"STARLINK-2090","PERIOD":"95.593","REV_AT_EPOCH":"9950","CLASSIFICATION_TYPE":"U"},{"CENTER_NAME":"EARTH","ECCENTRICITY":"0.00016140","LAUNCH_DATE":"2021-02-16","APOAPSIS":"548.353","RA_OF_ASC_NODE":"32.7999","GP_ID":"219264916","MEAN_MOTION":"15.06392851","MEAN_ANOMALY":"293.5418","OBJECT_ID":"2021-012BM","OBJECT_TYPE":"PAYLOAD","ELEMENT_SET_NO":"999","MEAN_MOTION_DDOT":"0.0000000000000","COUNTRY_CODE":"US","RCS_SIZE":"LARGE","TLE_LINE1":"1 47679U 21012BM  22335.44631247 -.00001254  00000-0 -65320-4 0  9999","MEAN_ELEMENT_THEORY":"SGP4","SEMIMAJOR_AXIS":"6925.370","CLASSIFICATION_TYPE":"U","PERIOD":"95.593","FILE":"3677495","REV_AT_EPOCH":"9999","OBJECT_NAME":"STARLINK-2095","INCLINATION":"53.0563","TLE_LINE2":"2 47679  53.0563  32.7999 0001614  66.5740 293.5418 15.06392851 99994","NORAD_CAT_ID":"47679","EPOCH":"2022-12-01T10:42:41.397408","SITE":"AFETR","ARG_OF_PERICENTER":"66.5740","PERIAPSIS":"546.118","REF_FRAME":"TEME","TIME_SYSTEM":"UTC","MEAN_MOTION_DOT":"-0.00001254","DECAY_DATE":null,"EPHEMERIS_TYPE":"0","BSTAR":"-0.00006532000000"},{"BSTAR":"0.00011191000000","REF_FRAME":"TEME","TIME_SYSTEM":"UTC","EPHEMERIS_TYPE":"0","DECAY_DATE":null,"MEAN_MOTION_DOT":"0.00001386","NORAD_CAT_ID":"47722","EPOCH":"2022-12-01T05:22:18.659712","TLE_LINE2":"2 47722  53.0547 159.0235 0001556  69.8521 290.2636 15.06394593 97954","PERIAPSIS":"546.153","ARG_OF_PERICENTER":"69.8521","SITE":"AFETR","CLASSIFICATION_TYPE":"U","FILE":"3677495","PERIOD":"95.592","OBJECT_NAME":"STARLINK-2068","REV_AT_EPOCH":"9795","INCLINATION":"53.0547","MEAN_ELEMENT_THEORY":"SGP4","SEMIMAJOR_AXIS":"6925.365","ELEMENT_SET_NO":"999","MEAN_MOTION_DDOT":"0.0000000000000","COUNTRY_CODE":"US","TLE_LINE1":"1 47722U 21017A   22335.22382708  .00001386  00000-0  11191-3 0  9994","RCS_SIZE":"LARGE","MEAN_ANOMALY":"290.2636","MEAN_MOTION":"15.06394593","OBJECT_ID":"2021-017A","OBJECT_TYPE":"PAYLOAD","LAUNCH_DATE":"2021-03-04","APOAPSIS":"548.308","RA_OF_ASC_NODE":"159.0235","ECCENTRICITY":"0.00015560","CENTER_NAME":"EARTH","GP_ID":"219266172"},{"TLE_LINE1":"1 47723U 21017B   22335.69605687 -.00000224  00000-0  38411-5 0  9997","RCS_SIZE":"LARGE","ELEMENT_SET_NO":"999","COUNTRY_CODE":"US","MEAN_MOTION_DDOT":"0.0000000000000","SEMIMAJOR_AXIS":"6925.376","MEAN_ELEMENT_THEORY":"SGP4","GP_ID":"219304964","LAUNCH_DATE":"2021-03-04","RA_OF_ASC_NODE":"91.6764","APOAPSIS":"548.196","CENTER_NAME":"EARTH","ECCENTRICITY":"0.00013800","OBJECT_ID":"2021-017B","OBJECT_TYPE":"PAYLOAD","MEAN_MOTION":"15.06391130","MEAN_ANOMALY":"282.4771","DECAY_DATE":null,"EPHEMERIS_TYPE":"0","MEAN_MOTION_DOT":"-0.00000224","REF_FRAME":"TEME","TIME_SYSTEM":"UTC","BSTAR":"0.00000384110000","INCLINATION":"53.0564","CLASSIFICATION_TYPE":"U","FILE":"3678231","PERIOD":"95.593","OBJECT_NAME":"STARLINK-2107","REV_AT_EPOCH":"9890","PERIAPSIS":"546.285","ARG_OF_PERICENTER":"77.6372","SITE":"AFETR","EPOCH":"2022-12-01T16:42:19.313568","NORAD_CAT_ID":"47723","TLE_LINE2":"2 47723  53.0564  91.6764 0001380  77.6372 282.4771 15.06391130 98901"},{"MEAN_ELEMENT_THEORY":"SGP4","SEMIMAJOR_AXIS":"6925.354","ELEMENT_SET_NO":"999","COUNTRY_CODE":"US","MEAN_MOTION_DDOT":"0.0000000000000","TLE_LINE1":"1 47724U 21017C   22335.60021294  .00002327  00000-0  17509-3 0  9993","RCS_SIZE":"LARGE","MEAN_ANOMALY":"301.2388","MEAN_MOTION":"15.06398121","OBJECT_ID":"2021-017C","OBJECT_TYPE":"PAYLOAD","LAUNCH_DATE":"2021-03-04","RA_OF_ASC_NODE":"92.1065","APOAPSIS":"548.485","CENTER_NAME":"EARTH","ECCENTRICITY":"0.00018270","GP_ID":"219279810","BSTAR":"0.00017509000000","REF_FRAME":"TEME","TIME_SYSTEM":"UTC","DECAY_DATE":null,"EPHEMERIS_TYPE":"0","MEAN_MOTION_DOT":"0.00002327","NORAD_CAT_ID":"47724","EPOCH":"2022-12-01T14:24:18.398016","TLE_LINE2":"2 47724  53.0560  92.1065 0001827  58.8780 301.2388 15.06398121 98235","PERIAPSIS":"545.954","ARG_OF_PERICENTER":"58.8780","SITE":"AFETR","CLASSIFICATION_TYPE":"U","PERIOD":"95.592","FILE":"3677915","REV_AT_EPOCH":"9823","OBJECT_NAME":"STARLINK-2116","INCLINATION":"53.0560"},{"PERIOD":"95.593","FILE":"3678231","REV_AT_EPOCH":"9789","OBJECT_NAME":"STARLINK-2125","CLASSIFICATION_TYPE":"U","INCLINATION":"53.0534","EPOCH":"2022-12-01T15:13:25.686912","NORAD_CAT_ID":"47725","TLE_LINE2":"2 47725  53.0534 161.9461 0001765  66.7289 293.3886 15.06392770 97894","PERIAPSIS":"546.013","ARG_OF_PERICENTER":"66.7289","SITE":"AFETR","TIME_SYSTEM":"UTC","REF_FRAME":"TEME","EPHEMERIS_TYPE":"0","DECAY_DATE":null,"MEAN_MOTION_DOT":"-0.00000470","BSTAR":"-0.00001263300000","RA_OF_ASC_NODE":"161.9461","APOAPSIS":"548.458","LAUNCH_DATE":"2021-03-04","CENTER_NAME":"EARTH","ECCENTRICITY":"0.00017650","GP_ID":"219303468","MEAN_MOTION":"15.06392770","MEAN_ANOMALY":"293.3886","OBJECT_TYPE":"PAYLOAD","OBJECT_ID":"2021-017D","COUNTRY_CODE":"US","MEAN_MOTION_DDOT":"0.0000000000000","ELEMENT_SET_NO":"999","TLE_LINE1":"1 47725U 21017D   22335.63432508 -.00000470  00000-0 -12633-4 0  9994","RCS_SIZE":"LARGE","MEAN_ELEMENT_THEORY":"SGP4","SEMIMAJOR_AXIS":"6925.371"},{"MEAN_ANOMALY":"302.2057","MEAN_MOTION":"15.06390418","OBJECT_TYPE":"PAYLOAD","OBJECT_ID":"2021-017E","APOAPSIS":"548.914","RA_OF_ASC_NODE":"161.1246","LAUNCH_DATE":"2021-03-04","CENTER_NAME":"EARTH","ECCENTRICITY":"0.00024130","GP_ID":"219304219","MEAN_ELEMENT_THEORY":"SGP4","SEMIMAJOR_AXIS":"6925.378","MEAN_MOTION_DDOT":"0.0000000000000","COUNTRY_CODE":"US","ELEMENT_SET_NO":"999","TLE_LINE1":"1 47726U 21017E   22335.81863133  .00003354  00000-0  24406-3 0  9999","RCS_SIZE":"MEDIUM","NORAD_CAT_ID":"47726","EPOCH":"2022-12-01T19:38:49.746912","TLE_LINE2":"2 47726  53.0550 161.1246 0002413  57.9166 302.2057 15.06390418 97913","PERIAPSIS":"545.572","ARG_OF_PERICENTER":"57.9166","SITE":"AFETR","PERIOD":"95.593","FILE":"3678231","OBJECT_NAME":"STARLINK-2126","REV_AT_EPOCH":"9791","CLASSIFICATION_TYPE":"U","INCLINATION":"53.0550","BSTAR":"0.00024406000000","TIME_SYSTEM":"UTC","REF_FRAME":"TEME","DECAY_DATE":null,"EPHEMERIS_TYPE":"0","MEAN_MOTION_DOT":"0.00003354"},{"BSTAR":"0.00003626400000","TIME_SYSTEM":"UTC","REF_FRAME":"TEME","MEAN_MOTION_DOT":"0.00000259","DECAY_DATE":null,"EPHEMERIS_TYPE":"0","TLE_LINE2":"2 47727  53.0548  82.2370 0001597  58.9029 301.2116 15.06405598 98375","NORAD_CAT_ID":"47727","EPOCH":"2022-12-01T13:41:48.630336","SITE":"AFETR","PERIAPSIS":"546.090","ARG_OF_PERICENTER":"58.9029","PERIOD":"95.592","FILE":"3677726","OBJECT_NAME":"STARLINK-2129","REV_AT_EPOCH":"9837","CLASSIFICATION_TYPE":"U","INCLINATION":"53.0548","MEAN_ELEMENT_THEORY":"SGP4","SEMIMAJOR_AXIS":"6925.331","MEAN_MOTION_DDOT":"0.0000000000000","COUNTRY_CODE":"US","ELEMENT_SET_NO":"999","RCS_SIZE":"LARGE","TLE_LINE1":"1 47727U 21017F   22335.57070174  .00000259  00000-0  36264-4 0  9995","MEAN_MOTION":"15.06405598","MEAN_ANOMALY":"301.2116","OBJECT_TYPE":"PAYLOAD","OBJECT_ID":"2021-017F","ECCENTRICITY":"0.00015970","CENTER_NAME":"EARTH","RA_OF_ASC_NODE":"82.2370","APOAPSIS":"548.302","LAUNCH_DATE":"2021-03-04","GP_ID":"219275066"}];
